{"type": "FeatureCollection", "features": [ {"type": "Feature", "properties": {"norad_id": 65304, "name": "DRAGON CRS-33", "group": "stations", "lat": 51.45427630089239, "lon": 154.80150585435936, "alt_km": 411.6592040932064, "timestamp": "2025-12-27T04:40:44.253790+00:00", "meta": {"OBJECT_NAME": "DRAGON CRS-33", "OBJECT_ID": "2025-186A", "EPOCH": "2025-12-26T20:34:16.428576", "MEAN_MOTION": 15.49855582, "ECCENTRICITY": 0.00032301, "INCLINATION": 51.6319, "RA_OF_ASC_NODE": 72.5609, "ARG_OF_PERICENTER": 307.0606, "MEAN_ANOMALY": 53.0087, "EPHEMERIS_TYPE": 0, "CLASSIFICATION_TYPE": "U", "NORAD_CAT_ID": 65304, "ELEMENT_SET_NO": 999, "REV_AT_EPOCH": 11, "BSTAR": 0.00027091986, "MEAN_MOTION_DOT": 0.00014958, "MEAN_MOTION_DDOT": 0}, "tle": {"line1": "1 65304U 25186A   25360.85713459  .00014958  00000+0  27092-3 0  9997", "line2": "2 65304  51.6319  72.5609 0003230 307.0606  53.0087 15.49855582   111"}}, "geometry": {"type": "Point", "coordinates": [154.80150585435936, 51.45427630089239]}}, {"type": "Feature", "properties": {"norad_id": 65586, "name": "PROGRESS-MS 32", "group": "stations", "lat": 51.45427635464415, "lon": 154.80150688834942, "alt_km": 411.65920410243416, "timestamp": "2025-12-27T04:40:44.253800+00:00", "meta": {"OBJECT_NAME": "PROGRESS-MS 32", "OBJECT_ID": "2025-204A", "EPOCH": "2025-12-26T20:34:16.428576", "MEAN_MOTION": 15.49855582, "ECCENTRICITY": 0.00032301, "INCLINATION": 51.6319, "RA_OF_ASC_NODE": 72.5609, "ARG_OF_PERICENTER": 307.0606, "MEAN_ANOMALY": 53.0087, "EPHEMERIS_TYPE": 0, "CLASSIFICATION_TYPE": "U", "NORAD_CAT_ID": 65586, "ELEMENT_SET_NO": 999, "REV_AT_EPOCH": 27, "BSTAR": 0.00027091986, "MEAN_MOTION_DOT": 0.00014958, "MEAN_MOTION_DDOT": 0}, "tle": {"line1": "1 65586U 25204A   25360.85713459  .00014958  00000+0  27092-3 0  9990", "line2": "2 65586  51.6319  72.5609 0003230 307.0606  53.0087 15.49855582   270"}}, "geometry": {"type": "Point", "coordinates": [154.80150688834942, 51.45427635464415]}}, {"type": "Feature", "properties": {"norad_id": 65616, "name": "CYGNUS NG-23", "group": "stations", "lat": 51.45427642989663, "lon": 154.8015083359364, "alt_km": 411.6592041153581, "timestamp": "2025-12-27T04:40:44.253814+00:00", "meta": {"OBJECT_NAME": "CYGNUS NG-23", "OBJECT_ID": "2025-208A", "EPOCH": "2025-12-26T20:34:16.428576", "MEAN_MOTION": 15.49855582, "ECCENTRICITY": 0.00032301, "INCLINATION": 51.6319, "RA_OF_ASC_NODE": 72.5609, "ARG_OF_PERICENTER": 307.0606, "MEAN_ANOMALY": 53.0087, "EPHEMERIS_TYPE": 0, "CLASSIFICATION_TYPE": "U", "NORAD_CAT_ID": 65616, "ELEMENT_SET_NO": 999, "REV_AT_EPOCH": 22, "BSTAR": 0.00027091986, "MEAN_MOTION_DOT": 0.00014958, "MEAN_MOTION_DDOT": 0}, "tle": {"line1": "1 65616U 25208A   25360.85713459  .00014958  00000+0  27092-3 0  9998", "line2": "2 65616  51.6319  72.5609 0003230 307.0606  53.0087 15.49855582   229"}}, "geometry": {"type": "Point", "coordinates": [154.8015083359364, 51.45427642989663]}}, {"type": "Feature", "properties": {"norad_id": 65729, "name": "DRAGONFLY", "group": "stations", "lat": -51.58284396245859, "lon": -26.279059052965117, "alt_km": 343.1485805436123, "timestamp": "2025-12-27T04:40:44.253824+00:00", "meta": {"OBJECT_NAME": "DRAGONFLY", "OBJECT_ID": "1998-067XH", "EPOCH": "2025-12-26T10:48:09.332064", "MEAN_MOTION": 15.76805342, "ECCENTRICITY": 0.0008231, "INCLINATION": 51.6248, "RA_OF_ASC_NODE": 65.3139, "ARG_OF_PERICENTER": 358.0707, "MEAN_ANOMALY": 2.026, "EPHEMERIS_TYPE": 0, "CLASSIFICATION_TYPE": "U", "NORAD_CAT_ID": 65729, "ELEMENT_SET_NO": 999, "REV_AT_EPOCH": 1532, "BSTAR": 0.0012148, "MEAN_MOTION_DOT": 0.00204396, "MEAN_MOTION_DDOT": 0}, "tle": {"line1": "1 65729U 98067XH  25360.45010801  .00204396  00000+0  12148-2 0  9995", "line2": "2 65729  51.6248  65.3139 0008231 358.0707   2.0260 15.76805342 15320"}}, "geometry": {"type": "Point", "coordinates": [-26.279059052965117, -51.58284396245859]}}, {"type": "Feature", "properties": {"norad_id": 65731, "name": "1998-067XK", "group": "stations", "lat": -51.102619722938684, "lon": -15.396115858951207, "alt_km": 365.6704425949574, "timestamp": "2025-12-27T04:40:44.253834+00:00", "meta": {"OBJECT_NAME": "1998-067XK", "OBJECT_ID": "1998-067XK", "EPOCH": "2025-12-26T21:23:13.987104", "MEAN_MOTION": 15.68524225, "ECCENTRICITY": 0.00050937, "INCLINATION": 51.628, "RA_OF_ASC_NODE": 65.2916, "ARG_OF_PERICENTER": 333.5043, "MEAN_ANOMALY": 26.5692, "EPHEMERIS_TYPE": 0, "CLASSIFICATION_TYPE": "U", "NORAD_CAT_ID": 65731, "ELEMENT_SET_NO": 999, "REV_AT_EPOCH": 1536, "BSTAR": 0.0010262184, "MEAN_MOTION_DOT": 0.00119786, "MEAN_MOTION_DDOT": 0}, "tle": {"line1": "1 65731U 98067XK  25360.89113411  .00119786  00000+0  10262-2 0  9990", "line2": "2 65731  51.6280  65.2916 0005093 333.5043  26.5692 15.68524225 15368"}}, "geometry": {"type": "Point", "coordinates": [-15.396115858951207, -51.102619722938684]}}, {"type": "Feature", "properties": {"norad_id": 65732, "name": "RSP-03", "group": "stations", "lat": 44.62058182763641, "lon": 114.11380264681279, "alt_km": 345.3091271992116, "timestamp": "2025-12-27T04:40:44.253844+00:00", "meta": {"OBJECT_NAME": "RSP-03", "OBJECT_ID": "1998-067XL", "EPOCH": "2025-12-26T11:37:50.673792", "MEAN_MOTION": 15.72242351, "ECCENTRICITY": 0.0006063, "INCLINATION": 51.6261, "RA_OF_ASC_NODE": 66.3111, "ARG_OF_PERICENTER": 338.1349, "MEAN_ANOMALY": 21.939, "EPHEMERIS_TYPE": 0, "CLASSIFICATION_TYPE": "U", "NORAD_CAT_ID": 65732, "ELEMENT_SET_NO": 999, "REV_AT_EPOCH": 1532, "BSTAR": 0.0010599, "MEAN_MOTION_DOT": 0.00145049, "MEAN_MOTION_DDOT": 0}, "tle": {"line1": "1 65732U 98067XL  25360.48461428  .00145049  00000+0  10599-2 0  9994", "line2": "2 65732  51.6261  66.3111 0006063 338.1349  21.9390 15.72242351 15327"}}, "geometry": {"type": "Point", "coordinates": [114.11380264681279, 44.62058182763641]}}, {"type": "Feature", "properties": {"norad_id": 65733, "name": "GHS-01", "group": "stations", "lat": 13.368863616584807, "lon": 71.36295741730355, "alt_km": 318.0744101506489, "timestamp": "2025-12-27T04:40:44.253854+00:00", "meta": {"OBJECT_NAME": "GHS-01", "OBJECT_ID": "1998-067XM", "EPOCH": "2025-12-26T21:01:30.345024", "MEAN_MOTION": 15.81574264, "ECCENTRICITY": 0.00094943, "INCLINATION": 51.6277, "RA_OF_ASC_NODE": 62.1658, "ARG_OF_PERICENTER": 4.8401, "MEAN_ANOMALY": 355.2691, "EPHEMERIS_TYPE": 0, "CLASSIFICATION_TYPE": "U", "NORAD_CAT_ID": 65733, "ELEMENT_SET_NO": 999, "REV_AT_EPOCH": 1541, "BSTAR": 0.0015054699, "MEAN_MOTION_DOT": 0.00319127, "MEAN_MOTION_DDOT": 0}, "tle": {"line1": "1 65733U 98067XM  25360.87604566  .00319127  00000+0  15055-2 0  9992", "line2": "2 65733  51.6277  62.1658 0009494   4.8401 355.2691 15.81574264 15410"}}, "geometry": {"type": "Point", "coordinates": [71.36295741730355, 13.368863616584807]}}, {"type": "Feature", "properties": {"norad_id": 65941, "name": "YOTSUBA-KULOVER", "group": "stations", "lat": 35.92667561512547, "lon": 102.25723275599022, "alt_km": 377.49098043965023, "timestamp": "2025-12-27T04:40:44.253867+00:00", "meta": {"OBJECT_NAME": "YOTSUBA-KULOVER", "OBJECT_ID": "1998-067XN", "EPOCH": "2025-12-26T14:38:51.631584", "MEAN_MOTION": 15.61332207, "ECCENTRICITY": 0.00025713, "INCLINATION": 51.6289, "RA_OF_ASC_NODE": 70.1673, "ARG_OF_PERICENTER": 5.6559, "MEAN_ANOMALY": 354.4463, "EPHEMERIS_TYPE": 0, "CLASSIFICATION_TYPE": "U", "NORAD_CAT_ID": 65941, "ELEMENT_SET_NO": 999, "REV_AT_EPOCH": 1202, "BSTAR": 0.00084261791, "MEAN_MOTION_DOT": 0.0007325, "MEAN_MOTION_DDOT": 0}, "tle": {"line1": "1 65941U 98067XN  25360.61031981  .00073250  00000+0  84262-3 0  9991", "line2": "2 65941  51.6289  70.1673 0002571   5.6559 354.4463 15.61332207 12021"}}, "geometry": {"type": "Point", "coordinates": [102.25723275599022, 35.92667561512547]}}, {"type": "Feature", "properties": {"norad_id": 65942, "name": "BOTAN", "group": "stations", "lat": -33.02257254000319, "lon": -82.89855979017693, "alt_km": 375.6719494990339, "timestamp": "2025-12-27T04:40:44.253878+00:00", "meta": {"OBJECT_NAME": "BOTAN", "OBJECT_ID": "1998-067XP", "EPOCH": "2025-12-26T21:36:00.133056", "MEAN_MOTION": 15.65926329, "ECCENTRICITY": 0.00036204, "INCLINATION": 51.6276, "RA_OF_ASC_NODE": 67.6002, "ARG_OF_PERICENTER": 350.1731, "MEAN_ANOMALY": 9.9193, "EPHEMERIS_TYPE": 0, "CLASSIFICATION_TYPE": "U", "NORAD_CAT_ID": 65942, "ELEMENT_SET_NO": 999, "REV_AT_EPOCH": 1208, "BSTAR": 0.0012627246, "MEAN_MOTION_DOT": 0.00132903, "MEAN_MOTION_DDOT": 0}, "tle": {"line1": "1 65942U 98067XP  25360.90000154  .00132903  00000+0  12627-2 0  9998", "line2": "2 65942  51.6276  67.6002 0003620 350.1731   9.9193 15.65926329 12087"}}, "geometry": {"type": "Point", "coordinates": [-82.89855979017693, -33.02257254000319]}}, {"type": "Feature", "properties": {"norad_id": 65943, "name": "E-KAGAKU-1", "group": "stations", "lat": 35.652790630763555, "lon": 101.85945081374402, "alt_km": 378.52362517432357, "timestamp": "2025-12-27T04:40:44.253888+00:00", "meta": {"OBJECT_NAME": "E-KAGAKU-1", "OBJECT_ID": "1998-067XQ", "EPOCH": "2025-12-26T11:34:38.215200", "MEAN_MOTION": 15.61326456, "ECCENTRICITY": 0.00014737, "INCLINATION": 51.6304, "RA_OF_ASC_NODE": 70.8185, "ARG_OF_PERICENTER": 333.5123, "MEAN_ANOMALY": 26.5795, "EPHEMERIS_TYPE": 0, "CLASSIFICATION_TYPE": "U", "NORAD_CAT_ID": 65943, "ELEMENT_SET_NO": 999, "REV_AT_EPOCH": 1200, "BSTAR": 0.0007949653, "MEAN_MOTION_DOT": 0.00069021, "MEAN_MOTION_DDOT": 0}, "tle": {"line1": "1 65943U 98067XQ  25360.48238675  .00069021  00000+0  79497-3 0  9992", "line2": "2 65943  51.6304  70.8185 0001473 333.5123  26.5795 15.61326456 12008"}}, "geometry": {"type": "Point", "coordinates": [101.85945081374402, 35.652790630763555]}}]}